QIANFAN-73              
1 63159U 25046A   25295.13033372  .00000136  00000+0  19220-3 0  9992
2 63159  88.9778 325.3680 0012917 273.1642  86.8031 13.50971437 40443
QIANFAN-74              
1 63160U 25046B   25295.18792891  .00000145  00000+0  20572-3 0  9999
2 63160  88.9782 325.2505 0002131  97.1420 262.9973 13.50973335 40519
QIANFAN-75              
1 63161U 25046C   25295.17547738  .00000163  00000+0  23390-3 0  9998
2 63161  88.9781 325.4847 0014040 276.4125  83.5427 13.50981554 40384
QIANFAN-76              
1 63162U 25046D   25295.17147473  .00000059  00000+0  72225-4 0  9997
2 63162  88.9777 325.4660 0011596 277.2467  82.7366 13.50972793 40393
QIANFAN-77              
1 63163U 25046E   25295.15232292  .00000365  00000+0  25657-3 0  9996
2 63163  88.9778 323.8986 0012960 236.6812 123.3125 13.96075583 41259
QIANFAN-78              
1 63164U 25046F   25295.13857940  .00000120  00000+0  16806-3 0  9993
2 63164  88.9783 325.3339 0012985 279.8655  80.1030 13.50973764 40461
QIANFAN-79              
1 63165U 25046G   25295.16726351  .00000134  00000+0  18934-3 0  9997
2 63165  88.9786 325.4364 0012675 277.8312  82.1400 13.50973113 40414
QIANFAN-80              
1 63166U 25046H   25295.18383238  .00000169  00000+0  24409-3 0  9995
2 63166  88.9783 325.1429 0011660 282.9836  77.0013 13.50974034 40575
